STARLINK-36271          
1 68703U 26081E   26191.58124188  .00008269  00000+0  25553-3 0  9994
2 68703  53.1569 182.1737 0001286  65.9653 294.1485 15.34409051 13576
STARLINK-37356          
1 68704U 26081F   26191.38373108  .00018851  00000+0  56731-3 0  9991
2 68704  53.1574 183.0735 0001824  83.4620 276.6590 15.34419119 13543
STARLINK-35369          
1 68705U 26081G   26190.40458938  .00017381  00000+0  52382-3 0  9994
2 68705  53.1579 187.6291 0000288 131.7248 228.3779 15.34431798 13395
STARLINK-37319          
1 68706U 26081H   26191.44045122  .00017202  00000+0  51911-3 0  9996
2 68706  53.1564 182.7319 0001648  95.4093 264.7098 15.34397548 13552
STARLINK-37112          
1 68707U 26081J   26190.40248667  .00016526  00000+0  49868-3 0  9997
2 68707  53.1581 187.6262 0000449 128.6512 231.4531 15.34430478 13391
STARLINK-37340          
1 68708U 26081K   26191.44255077  .00006951  00000+0  21667-3 0  9994
2 68708  53.1568 182.7296 0001039  92.5382 267.5740 15.34399758 13555
STARLINK-37303          
1 68709U 26081L   26190.72185429  .00015150  00000+0  45857-3 0  9996
2 68709  53.1582 186.0529 0001805  82.3761 277.7446 15.34404064 13448
STARLINK-36859          
1 68710U 26081M   26190.71974538  .00018789  00000+0  56516-3 0  9999
2 68710  53.1622 186.0402 0000225 228.8784 131.2199 15.34436079 13442
STARLINK-37320          
1 68711U 26081N   26190.71764592  .00010222  00000+0  31310-3 0  9996
2 68711  53.1577 186.0260 0001320  87.4229 272.6925 15.34417432 13443
STARLINK-37318          
1 68712U 26081P   26191.36689834  .00024207  00000+0  72461-3 0  9994
2 68712  53.1573 182.9681 0001722  61.0318 299.0857 15.34428615 13548
STARLINK-37305          
1 68713U 26081Q   26191.49507649  .00008283  00000+0  25622-3 0  9995
2 68713  53.1577 182.3394 0001937  83.2338 276.8884 15.34374190 13567
STARLINK-37225          
1 68714U 26081R   26191.55809674  .00027050  00000+0  80782-3 0  9997
2 68714  53.1587 182.0299 0001004  67.2499 292.8610 15.34439940 13576
STARLINK-37322          
1 68715U 26081S   26191.36058766  .00015334  00000+0  46378-3 0  9990
2 68715  53.1559 182.9189 0001262  84.3447 275.7699 15.34416809 13545
STARLINK-36337          
1 68716U 26081T   26191.35848212  .00007582  00000+0  23530-3 0  9994
2 68716  53.1561 182.9250 0001129  90.3021 269.8111 15.34399766 13540
STARLINK-36685          
1 68717U 26081U   26190.37933946  .00025667  00000+0  76755-3 0  9996
2 68717  53.1585 187.4620 0000929 110.6261 249.4842 15.34426320 13392
STARLINK-36684          
1 68718U 26081V   26191.41940510  .00020708  00000+0  62203-3 0  9992
2 68718  53.1550 182.5746 0001265  95.3893 264.7254 15.34414467 13558
STARLINK-36686          
1 68719U 26081W   26191.48033586  .00025162  00000+0  75419-3 0  9998
2 68719  53.1564 182.2459 0001313  82.3721 277.7430 15.34363798 13563
STARLINK-36681          
1 68720U 26081X   26190.69240473  .00006769  00000+0  21127-3 0  9996
2 68720  53.1570 185.8643 0002475  93.4427 266.6859 15.34403975 13443
STARLINK-36680          
1 68721U 26081Y   26191.54336633  .00013267  00000+0  40315-3 0  9997
2 68721  53.1566 181.9263 0001106  91.7628 268.3501 15.34396178 13571
STARLINK-37271          
1 68722U 26081Z   26191.34585429  .00011648  00000+0  35513-3 0  9990
2 68722  53.1572 182.8233 0000707  84.6611 275.4473 15.34418610 13545
STARLINK-37273          
1 68723U 26081AA  26191.41730907  .00028097  00000+0  83950-3 0  9996
2 68723  53.1584 182.5729 0002738  57.3709 302.7558 15.34401849 13552
STARLINK-37274          
1 68724U 26081AB  26191.60219332  .00021269  00000+0  63846-3 0  9998
2 68724  53.1524 181.5803 0002211  77.7521 282.3729 15.34417495 13583
STARLINK-37275          
1 68725U 26081AC  26191.53285007  .00016288  00000+0  49231-3 0  9990
2 68725  53.1575 181.8774 0001197  92.9149 267.1991 15.34389286 13574
STARLINK-37272          
1 68726U 26081AD  26191.79549183  .00018172  00000+0  54714-3 0  9993
2 68726  53.1523 180.6537 0000925 104.7802 255.3303 15.34429298 13617
STARLINK-37270          
1 68727U 26081AE  26191.00965486  .00005318  00000+0  16842-3 0  9994
2 68727  53.1567 184.2951 0001202  94.6583 265.4557 15.34396811 13491
STARLINK-37242          
1 68728U 26082A   26191.25411038  .00014399  00000+0  44748-3 0  9997
2 68728  97.2840  54.4265 0001772 101.9962 258.1479 15.33445817 13230
STARLINK-37264          
1 68729U 26082B   26191.79518799  .00007464  00000+0  23317-3 0  9993
2 68729  97.2858  54.9150 0001025  96.9922 263.1438 15.33460644 13313
STARLINK-37230          
1 68730U 26082C   26191.43900144  .00015032  00000+0  46690-3 0  9994
2 68730  97.2886  54.6401 0003149 124.2991 235.8550 15.33448783 13267
STARLINK-37202          
1 68731U 26082D   26191.08009749  .00003491  00000+0  11035-3 0  9998
2 68731  97.2856  54.2036 0002015  95.7172 264.4301 15.33458149 13202
STARLINK-37167          
1 68732U 26082E   26189.05990704  .00010950  00000+0  34096-3 0  9993
2 68732  97.2865  52.2072 0001697  94.8246 265.3190 15.33450727 12892
