OBJECT_NAME,OBJECT_ID,EPOCH,MEAN_MOTION,ECCENTRICITY,INCLINATION,RA_OF_ASC_NODE,ARG_OF_PERICENTER,MEAN_ANOMALY,EPHEMERIS_TYPE,CLASSIFICATION_TYPE,NORAD_CAT_ID,ELEMENT_SET_NO,REV_AT_EPOCH,BSTAR,MEAN_MOTION_DOT,MEAN_MOTION_DDOT
STARLINK-36271,2026-081E,2026-07-10T13:56:59.298432,15.34409051,.00012865,53.1569,182.1737,65.9653,294.1485,0,U,68703,999,1357,.25552926E-3,.8269E-4,0
STARLINK-37356,2026-081F,2026-07-10T09:12:34.365312,15.34419119,.00018243,53.1574,183.0735,83.4620,276.6590,0,U,68704,999,1354,.56730554E-3,.18851E-3,0
STARLINK-35369,2026-081G,2026-07-09T09:42:36.522432,15.34431798,.00002886,53.1579,187.6291,131.7248,228.3779,0,U,68705,999,1339,.52381501E-3,.17381E-3,0
STARLINK-37319,2026-081H,2026-07-10T10:34:14.985408,15.34397548,.0001648,53.1564,182.7319,95.4093,264.7098,0,U,68706,999,1355,.51910721E-3,.17202E-3,0
STARLINK-37112,2026-081J,2026-07-09T09:39:34.848288,15.34430478,.00004491,53.1581,187.6262,128.6512,231.4531,0,U,68707,999,1339,.49867913E-3,.16526E-3,0
STARLINK-37340,2026-081K,2026-07-10T10:37:16.386528,15.34399758,.00010393,53.1568,182.7296,92.5382,267.5740,0,U,68708,999,1355,.21666602E-3,.6951E-4,0
STARLINK-37303,2026-081L,2026-07-09T17:19:28.210656,15.34404064,.00018058,53.1582,186.0529,82.3761,277.7446,0,U,68709,999,1344,.45856587E-3,.1515E-3,0
STARLINK-36859,2026-081M,2026-07-09T17:16:26.000832,15.34436079,.00002257,53.1622,186.0402,228.8784,131.2199,0,U,68710,999,1344,.56516156E-3,.18789E-3,0
STARLINK-37320,2026-081N,2026-07-09T17:13:24.607488,15.34417432,.00013207,53.1577,186.0260,87.4229,272.6925,0,U,68711,999,1344,.31309587E-3,.10222E-3,0
STARLINK-37318,2026-081P,2026-07-10T08:48:20.016576,15.34428615,.00017222,53.1573,182.9681,61.0318,299.0857,0,U,68712,999,1354,.72461271E-3,.24207E-3,0
STARLINK-37305,2026-081Q,2026-07-10T11:52:54.608736,15.34374190,.0001937,53.1577,182.3394,83.2338,276.8884,0,U,68713,999,1356,.25622E-3,.8283E-4,0
STARLINK-37225,2026-081R,2026-07-10T13:23:39.558336,15.34439940,.0001004,53.1587,182.0299,67.2499,292.8610,0,U,68714,999,1357,.80782E-3,.2705E-3,0
STARLINK-37322,2026-081S,2026-07-10T08:39:14.773824,15.34416809,.00012627,53.1559,182.9189,84.3447,275.7699,0,U,68715,999,1354,.46378168E-3,.15334E-3,0
STARLINK-36337,2026-081T,2026-07-10T08:36:12.855168,15.34399766,.00011294,53.1561,182.9250,90.3021,269.8111,0,U,68716,999,1354,.23529711E-3,.7582E-4,0
STARLINK-36685,2026-081U,2026-07-09T09:06:14.929344,15.34426320,.00009292,53.1585,187.4620,110.6261,249.4842,0,U,68717,999,1339,.76754673E-3,.25667E-3,0
STARLINK-36684,2026-081V,2026-07-10T10:03:56.600640,15.34414467,.00012659,53.1550,182.5746,95.3893,264.7254,0,U,68718,999,1355,.62203059E-3,.20708E-3,0
STARLINK-36686,2026-081W,2026-07-10T11:31:41.018304,15.34363798,.0001313,53.1564,182.2459,82.3721,277.7430,0,U,68719,999,1356,.75419E-3,.25162E-3,0
STARLINK-36681,2026-081X,2026-07-09T16:37:03.768672,15.34403975,.00024759,53.1570,185.8643,93.4427,266.6859,0,U,68720,999,1344,.211269E-3,.6769E-4,0
STARLINK-36680,2026-081Y,2026-07-10T13:02:26.850912,15.34396178,.0001106,53.1566,181.9263,91.7628,268.3501,0,U,68721,999,1357,.40315E-3,.13267E-3,0
STARLINK-37271,2026-081Z,2026-07-10T08:18:01.810656,15.34418610,.00007075,53.1572,182.8233,84.6611,275.4473,0,U,68722,999,1354,.35513206E-3,.11648E-3,0
STARLINK-37273,2026-081AA,2026-07-10T10:00:55.503648,15.34401849,.00027385,53.1584,182.5729,57.3709,302.7558,0,U,68723,999,1355,.83950047E-3,.28097E-3,0
STARLINK-37274,2026-081AB,2026-07-10T14:27:09.502848,15.34417495,.0002211,53.1524,181.5803,77.7521,282.3729,0,U,68724,999,1358,.63846E-3,.21269E-3,0
STARLINK-37275,2026-081AC,2026-07-10T12:47:18.246048,15.34389286,.0001197,53.1575,181.8774,92.9149,267.1991,0,U,68725,999,1357,.49231E-3,.16288E-3,0
STARLINK-37272,2026-081AD,2026-07-10T19:05:30.494112,15.34429298,.0000925,53.1523,180.6537,104.7802,255.3303,0,U,68726,999,1361,.54714E-3,.18172E-3,0
STARLINK-37270,2026-081AE,2026-07-10T00:13:54.179904,15.34396811,.00012029,53.1567,184.2951,94.6583,265.4557,0,U,68727,999,1349,.16842041E-3,.5318E-4,0
STARLINK-37242,2026-082A,2026-07-10T06:05:55.136832,15.33445817,.00017727,97.2840,54.4265,101.9962,258.1479,0,U,68728,999,1323,.44747729E-3,.14399E-3,0
STARLINK-37264,2026-082B,2026-07-10T19:05:04.242336,15.33460644,.0001025,97.2858,54.9150,96.9922,263.1438,0,U,68729,999,1331,.23317E-3,.7464E-4,0
STARLINK-37230,2026-082C,2026-07-10T10:32:09.724416,15.33448783,.00031493,97.2886,54.6401,124.2991,235.8550,0,U,68730,999,1326,.46689717E-3,.15032E-3,0
STARLINK-37202,2026-082D,2026-07-10T01:55:20.423136,15.33458149,.00020159,97.2856,54.2036,95.7172,264.4301,0,U,68731,999,1320,.11035168E-3,.3491E-4,0
STARLINK-37167,2026-082E,2026-07-08T01:26:15.968256,15.33450727,.00016978,97.2865,52.2072,94.8246,265.3190,0,U,68732,999,1289,.34095739E-3,.1095E-3,0
